FENGYUN 1C DEB          
1 32102U 99025CQU 17342.62212119  .00005891  00000-0  84113-3 0  9997
2 32102  99.3297 264.3273 0122270 114.1801   6.4923 14.72128167537239
